NORAD_CAT_ID,OBJECT_NAME,OBJECT_TYPE,EPOCH,MEAN_MOTION,ECCENTRICITY,INCLINATION,RA_OF_ASC_NODE,ARG_OF_PERICENTER,MEAN_ANOMALY,BSTAR,MEAN_MOTION_DOT,MEAN_MOTION_DDOT,TLE_LINE0,TLE_LINE1,TLE_LINE2,SEMIMAJOR_AXIS,PERIOD,APOGEE,PERIGEE,DECAYED
55743.0,STARLINK-5602,PAYLOAD,2023-10-11 02:38:02,14.9832947,0.0002568,69.9984,304.8809,266.2942,93.7923,-2.5548e-05,-3.98e-06,0.0,0 STARLINK-5602,1 55743U 23028C   23284.10974621 -.00000398  00000-0 -25548-4 0  9998,2 55743  69.9984 304.8809 0002568 266.2942  93.7923 14.98329470 34136,6950.195,96.107,573.844,570.275,0.0
55743.0,STARLINK-5602,PAYLOAD,2023-10-11 10:38:42,14.98326408,0.0002954,69.9981,304.0387,271.0129,89.0692,-4.7594e-05,-6.61e-06,0.0,0 STARLINK-5602,1 55743U 23028C   23284.44354910 -.00000661  00000-0 -47594-4 0  9996,2 55743  69.9981 304.0387 0002954 271.0129  89.0692 14.98326408 34180,6950.204,96.107,574.122,570.016,0.0
55743.0,STARLINK-5602,PAYLOAD,2023-10-12 04:16:11,14.98326317,0.0002761,69.9981,302.1865,268.7091,91.3751,-1.7549e-06,-1.14e-06,0.0,0 STARLINK-5602,1 55743U 23028C   23285.17790867 -.00000114  00000-0 -17549-5 0  9993,2 55743  69.9981 302.1865 0002761 268.7091  91.3751 14.98326317 34290,6950.204,96.107,573.988,570.15,0.0
55743.0,STARLINK-5602,PAYLOAD,2023-10-12 10:40:43,14.983294,0.0002652,69.9978,301.5124,265.5202,94.5654,2.6744e-05,2.26e-06,0.0,0 STARLINK-5602,1 55743U 23028C   23285.44494624  .00000226  00000-0  26744-4 0  9993,2 55743  69.9978 301.5124 0002652 265.5202  94.5654 14.98329400 34333,6950.195,96.107,573.903,570.217,0.0
55743.0,STARLINK-5602,PAYLOAD,2023-10-12 18:41:23,14.9832946,0.0002567,69.9985,300.67,271.7984,88.2881,3.9637e-05,3.8e-06,0.0,0 STARLINK-5602,1 55743U 23028C   23285.77874672  .00000380  00000-0  39637-4 0  9990,2 55743  69.9985 300.6700 0002567 271.7984  88.2881 14.98329460 34385,6950.195,96.107,573.844,570.275,0.0
55743.0,STARLINK-5602,PAYLOAD,2023-10-13 04:18:11,14.98327221,0.0002863,69.9978,299.6598,269.9358,90.1473,0.0001093,1.211e-05,0.0,0 STARLINK-5602,1 55743U 23028C   23286.17930555  .00001211  00000-0  10930-3 0  9996,2 55743  69.9978 299.6598 0002863 269.9358  90.1473 14.98327221 34441,6950.201,96.107,574.056,570.077,0.0
55743.0,STARLINK-5602,PAYLOAD,2023-10-13 10:42:44,14.98328542,0.0002546,69.998,298.9867,261.7115,98.3755,0.00014672,1.658e-05,0.0,0 STARLINK-5602,1 55743U 23028C   23286.44634405  .00001658  00000-0  14672-3 0  9993,2 55743  69.9980 298.9867 0002546 261.7115  98.3755 14.98328542 34488,6950.197,96.107,573.832,570.293,0.0
55743.0,STARLINK-5602,PAYLOAD,2023-10-14 04:20:12,14.98331287,0.0002887,69.9976,297.1351,270.02,90.0628,5.1922e-05,5.27e-06,0.0,0 STARLINK-5602,1 55743U 23028C   23287.18070408  .00000527  00000-0  51922-4 0  9996,2 55743  69.9976 297.1351 0002887 270.0200  90.0628 14.98331287 34598,6950.189,96.107,574.06,570.047,0.0
55743.0,STARLINK-5602,PAYLOAD,2023-10-14 10:44:44,14.98335288,0.0002796,69.9979,296.4627,266.7229,93.361,8.5579e-05,9.28e-06,0.0,0 STARLINK-5602,1 55743U 23028C   23287.44774000  .00000928  00000-0  85579-4 0  9994,2 55743  69.9979 296.4627 0002796 266.7229  93.3610 14.98335288 34638,6950.177,96.107,573.985,570.098,0.0
55743.0,STARLINK-5602,PAYLOAD,2023-10-15 10:46:46,14.98325475,0.0002731,69.9984,293.9383,263.5847,96.5001,-7.4001e-05,-9.76e-06,0.0,0 STARLINK-5602,1 55743U 23028C   23288.44915124 -.00000976  00000-0 -74001-4 0  9992,2 55743  69.9984 293.9383 0002731 263.5847  96.5001 14.98325475 34787,6950.207,96.107,573.97,570.174,0.0
55743.0,STARLINK-5602,PAYLOAD,2023-10-15 17:11:18,14.98330378,0.000313,69.9975,293.2643,271.6381,88.442,-4.3444e-05,-6.11e-06,0.0,0 STARLINK-5602,1 55743U 23028C   23288.71618623 -.00000611  00000-0 -43444-4 0  9999,2 55743  69.9975 293.2643 0003130 271.6381  88.4420 14.98330378 34824,6950.192,96.107,574.232,569.881,0.0
55743.0,STARLINK-5602,PAYLOAD,2023-10-16 02:48:05,14.98413897,0.000296,69.9974,292.2536,261.6839,98.3985,-0.0013675,-0.00016407,0.0,0 STARLINK-5602,1 55743U 23028C   23289.11673549 -.00016407  00000-0 -13675-2 0  9993,2 55743  69.9974 292.2536 0002960 261.6839  98.3985 14.98413897 34880,6949.933,96.102,573.856,569.741,0.0
55743.0,STARLINK-5602,PAYLOAD,2023-10-16 10:48:45,14.98384365,0.0002727,69.998,291.4117,264.4525,95.6323,-0.00077107,-9.294e-05,0.0,0 STARLINK-5602,1 55743U 23028C   23289.45052686 -.00009294  00000-0 -77107-3 0  9990,2 55743  69.9980 291.4117 0002727 264.4525  95.6323 14.98384365 34936,6950.025,96.104,573.785,569.995,0.0
55743.0,STARLINK-5602,PAYLOAD,2023-10-16 23:37:51,14.98327696,0.0002701,69.9985,290.0659,267.8236,92.2613,0.00011282,1.253e-05,0.0,0 STARLINK-5602,1 55743U 23028C   23289.98462251  .00001253  00000-0  11282-3 0  9998,2 55743  69.9985 290.0659 0002701 267.8236  92.2613 14.98327696 35014,6950.2,96.107,573.942,570.188,0.0
55743.0,STARLINK-5602,PAYLOAD,2023-10-17 09:14:39,14.98326605,0.0002635,69.9985,289.0558,263.9802,96.1057,0.00012541,1.404e-05,0.0,0 STARLINK-5602,1 55743U 23028C   23290.38518325  .00001404  00000-0  12541-3 0  9995,2 55743  69.9985 289.0558 0002635 263.9802  96.1057 14.98326605 35072,6950.203,96.107,573.9,570.237,0.0
55743.0,STARLINK-5602,PAYLOAD,2023-10-17 17:15:20,14.98321491,0.0002553,69.999,288.2138,266.562,93.5247,0.00010035,1.104e-05,0.0,0 STARLINK-5602,1 55743U 23028C   23290.71898834  .00001104  00000-0  10035-3 0  9991,2 55743  69.9990 288.2138 0002553 266.5620  93.5247 14.98321491 35125,6950.219,96.108,573.859,570.31,0.0
55743.0,STARLINK-5602,PAYLOAD,2023-10-18 02:52:08,14.98329698,0.000292,69.9985,287.2049,269.2583,90.8241,-5.1061e-05,-7.02e-06,0.0,0 STARLINK-5602,1 55743U 23028C   23291.11954646 -.00000702  00000-0 -51061-4 0  9990,2 55743  69.9985 287.2049 0002920 269.2583  90.8241 14.98329698 35182,6950.194,96.107,574.088,570.029,0.0
55743.0,STARLINK-5602,PAYLOAD,2023-10-18 09:16:41,14.98329542,0.0002845,69.9987,286.5314,267.0367,93.0466,-2.5245e-05,-3.94e-06,0.0,0 STARLINK-5602,1 55743U 23028C   23291.38658579 -.00000394  00000-0 -25245-4 0  9997,2 55743  69.9987 286.5314 0002845 267.0367  93.0466 14.98329542 35220,6950.194,96.107,574.037,570.082,0.0
55743.0,STARLINK-5602,PAYLOAD,2023-10-19 09:18:41,14.98333558,0.0002774,69.9984,284.0052,271.0725,89.0116,6.8555e-05,7.25e-06,0.0,0 STARLINK-5602,1 55743U 23028C   23292.38798010  .00000725  00000-0  68555-4 0  9990,2 55743  69.9984 284.0052 0002774 271.0725  89.0116 14.98333558 35378,6950.182,96.107,573.975,570.119,0.0
55743.0,STARLINK-5602,PAYLOAD,2023-10-20 01:20:02,14.98327267,0.0003028,69.9983,282.3221,270.0105,90.0707,4.7926e-05,4.79e-06,0.0,0 STARLINK-5602,1 55743U 23028C   23293.05558378  .00000479  00000-0  47926-4 0  9991,2 55743  69.9983 282.3221 0003028 270.0105  90.0707 14.98327267 35479,6950.201,96.107,574.171,569.962,0.0
55743.0,STARLINK-5602,PAYLOAD,2023-10-20 09:20:42,14.98328562,0.0003005,69.9984,281.4794,271.0173,89.0642,5.8198e-05,6.01e-06,0.0,0 STARLINK-5602,1 55743U 23028C   23293.38938274  .00000601  00000-0  58198-4 0  9994,2 55743  69.9984 281.4794 0003005 271.0173  89.0642 14.98328562 35527,6950.197,96.107,574.151,569.974,0.0
55743.0,STARLINK-5602,PAYLOAD,2023-10-21 02:58:11,14.98327709,0.0002805,69.9991,279.6279,273.5366,86.5473,-2.5816e-05,-4.01e-06,0.0,0 STARLINK-5602,1 55743U 23028C   23294.12374680 -.00000401  00000-0 -25816-4 0  9993,2 55743  69.9991 279.6279 0002805 273.5366  86.5473 14.98327709 35638,6950.2,96.107,574.015,570.115,0.0
55743.0,STARLINK-5602,PAYLOAD,2023-10-21 09:22:43,14.98329293,0.0002915,69.9991,278.9552,252.9558,107.1282,2.8529e-05,2.47e-06,0.0,0 STARLINK-5602,1 55743U 23028C   23294.39078309  .00000247  00000-0  28529-4 0  9991,2 55743  69.9991 278.9552 0002915 252.9558 107.1282 14.98329293 35672,6950.195,96.107,574.086,570.034,0.0
55743.0,STARLINK-5602,PAYLOAD,2023-10-21 22:11:45,14.98341797,0.0002608,70.0014,277.6096,261.4146,98.6718,0.00073149,8.648e-05,0.0,0 STARLINK-5602,1 55743U 23028C   23294.92483589  .00008648  00000-0  73149-3 0  9990,2 55743  70.0014 277.6096 0002608 261.4146  98.6718 14.98341797 35757,6950.156,96.106,573.834,570.209,0.0
55743.0,STARLINK-5602,PAYLOAD,2023-10-22 03:00:11,14.98334792,0.0002639,69.999,277.1037,266.9983,93.0875,8.9043e-05,9.7e-06,0.0,0 STARLINK-5602,1 55743U 23028C   23295.12513795  .00000970  00000-0  89043-4 0  9997,2 55743  69.9990 277.1037 0002639 266.9983  93.0875 14.98334792 35783,6950.178,96.107,573.877,570.209,0.0
55743.0,STARLINK-5602,PAYLOAD,2023-10-22 09:24:44,14.98335753,0.0002546,69.9996,276.4302,269.203,90.8838,9.2739e-05,1.014e-05,0.0,0 STARLINK-5602,1 55743U 23028C   23295.39217702  .00001014  00000-0  92739-4 0  9991,2 55743  69.9996 276.4302 0002546 269.2030  90.8838 14.98335753 35829,6950.175,96.107,573.81,570.271,0.0
55743.0,STARLINK-5602,PAYLOAD,2023-10-22 15:49:16,14.98330712,0.0002035,69.9998,275.7569,270.7694,89.3232,2.6979e-05,2.29e-06,0.0,0 STARLINK-5602,1 55743U 23028C   23295.65922305  .00000229  00000-0  26979-4 0  9992,2 55743  69.9998 275.7569 0002035 270.7694  89.3232 14.98330712 35869,6950.191,96.107,573.47,570.641,0.0
55743.0,STARLINK-5602,PAYLOAD,2023-10-23 07:50:38,14.98321458,0.0002555,69.9991,274.0736,265.1728,94.9139,-3.9159e-05,-5.6e-06,0.0,0 STARLINK-5602,1 55743U 23028C   23296.32682949 -.00000560  00000-0 -39159-4 0  9998,2 55743  69.9991 274.0736 0002555 265.1728  94.9139 14.98321458 35969,6950.219,96.108,573.86,570.309,0.0
55743.0,STARLINK-5602,PAYLOAD,2023-10-24 04:40:18,14.98386357,0.0002701,69.9996,271.8843,259.8465,100.239,0.00038277,4.484e-05,0.0,0 STARLINK-5602,1 55743U 23028C   23297.19465921  .00004484  00000-0  38277-3 0  9999,2 55743  69.9996 271.8843 0002701 259.8465 100.2390 14.98386357 36093,6950.019,96.103,573.761,570.006,0.0
55743.0,STARLINK-5602,PAYLOAD,2023-10-24 07:52:38,14.98335156,0.0002709,69.9992,271.5475,269.4017,90.6832,-6.8439e-05,-9.1e-06,0.0,0 STARLINK-5602,1 55743U 23028C   23297.32822073 -.00000910  00000-0 -68439-4 0  9995,2 55743  69.9992 271.5475 0002709 269.4017  90.6832 14.98335156 36112,6950.177,96.107,573.925,570.159,0.0
